[{"OBJECT_NAME":"QIANFAN-5","OBJECT_ID":"2024-140E","EPOCH":"2026-03-09T22:15:32.408352","MEAN_MOTION":13.51002562,"ECCENTRICITY":0.00142592,"INCLINATION":88.9687,"RA_OF_ASC_NODE":290.2392,"ARG_OF_PERICENTER":325.4546,"MEAN_ANOMALY":34.5678,"EPHEMERIS_TYPE":0,"CLASSIFICATION_TYPE":"U","NORAD_CAT_ID":60383,"ELEMENT_SET_NO":999,"REV_AT_EPOCH":7907,"BSTAR":9.3498579e-5,"MEAN_MOTION_DOT":7.2e-7,"MEAN_MOTION_DDOT":0},{"OBJECT_NAME":"H-1 R\/B","OBJECT_ID":"1990-013D","EPOCH":"2026-03-09T20:41:38.221152","MEAN_MOTION":13.03738736,"ECCENTRICITY":0.04684854,"INCLINATION":99.0549,"RA_OF_ASC_NODE":24.8453,"ARG_OF_PERICENTER":30.6555,"MEAN_ANOMALY":332.1059,"EPHEMERIS_TYPE":0,"CLASSIFICATION_TYPE":"U","NORAD_CAT_ID":20491,"ELEMENT_SET_NO":999,"REV_AT_EPOCH":71608,"BSTAR":0.0016160084,"MEAN_MOTION_DOT":8.33e-6,"MEAN_MOTION_DDOT":0}]
